0 COSMOS 2329
1 23791U 96009E   13281.52385704  .00000025  00000-0  83185-4 0  3951
2 23791 082.5746 041.9876 0009298 108.0172 021.2835 12.61600032812203
0 COSMOS 2329
1 23791U 96009E   13283.58570383 -.00000007  00000-0 -10186-3 0  3961
2 23791 082.5750 040.6727 0009260 103.9823 025.0661 12.61600211812461
0 COSMOS 2329
1 23791U 96009E   13285.81498972  .00000002  00000-0 -46244-4 0  3972
2 23791 082.5755 039.2513 0009246 099.4330 069.4544 12.61600225812747
0 COSMOS 2329
1 23791U 96009E   13288.00766076  .00000024  00000-0  74901-4 0  3984
2 23791 082.5758 037.8534 0009185 095.0140 307.5007 12.61599973813029
0 COSMOS 2329
1 23791U 96009E   13290.48521782  .00000051  00000-0  22503-3 0  3993
2 23791 082.5758 036.2740 0009167 090.0190 039.3616 12.61599945813330
0 COSMOS 2329
1 23791U 96009E   13292.79413163  .00000045  00000-0  19461-3 0  4007
2 23791 082.5757 034.8020 0009192 085.4766 085.2125 12.61600097813627
0 COSMOS 2329
1 23791U 96009E   13294.98843097  .00000031  00000-0  11494-3 0  4017
2 23791 082.5756 033.4031 0009122 080.9578 330.7487 12.61600375813906
